LUR-1                   
1 60506U 24149AQ  26068.79566301  .00009121  00000+0  32985-3 0  9998
2 60506  97.3790 148.4255 0002777 309.1571  50.9421 15.28658648 86785
STARLINK-35893          
1 66565U 25268J   26068.17653314  .00027668  00000+0  10110-2 0  9996
2 66565  43.0028 349.7575 0001774 257.0329 103.0325 15.27585270 17884
